{
"type": "FeatureCollection",
"name": "ward_predictions",
"crs": { "type": "name", "properties": { "name": "urn:ogc:def:crs:OGC:1.3:CRS84" } },
"features": [
{ "type": "Feature", "properties": { "ward_id": "KOL-DD", "ward_name": "Dum Dum", "city": "Kolkata", "lat": 22.642, "lon": 88.4312, "area_m2": 10241948.934695905, "prediction_timestamp": "2026-09-05T13:11:36.967729", "forecast_date": "2026-09-05", "peak_temperature_c": 35.96, "min_night_temp_c": 28.71, "peak_wbgt_c": 32.29, "peak_utci_c": 28.99, "peak_heat_index_c": 53.25, "is_night_deficit": true, "surge_pct": 72.7, "surge_interval_lower": 68.2, "surge_interval_upper": 77.2, "risk_tier": "EXTREME", "color_code": "DARK_RED" }, "geometry": { "type": "Polygon", "coordinates": [ [ [ 88.4162, 22.627 ], [ 88.4462, 22.627 ], [ 88.4462, 22.657 ], [ 88.4162, 22.657 ], [ 88.4162, 22.627 ] ] ] } },
{ "type": "Feature", "properties": { "ward_id": "KOL-DD", "ward_name": "Dum Dum", "city": "Kolkata", "lat": 22.642, "lon": 88.4312, "area_m2": 10241948.934695905, "prediction_timestamp": "2026-09-05T13:11:36.967729", "forecast_date": "2026-09-06", "peak_temperature_c": 42.8, "min_night_temp_c": 24.64, "peak_wbgt_c": 38.7, "peak_utci_c": 41.09, "peak_heat_index_c": 65.63, "is_night_deficit": false, "surge_pct": 69.6, "surge_interval_lower": 65.1, "surge_interval_upper": 74.1, "risk_tier": "EXTREME", "color_code": "DARK_RED" }, "geometry": { "type": "Polygon", "coordinates": [ [ [ 88.4162, 22.627 ], [ 88.4462, 22.627 ], [ 88.4462, 22.657 ], [ 88.4162, 22.657 ], [ 88.4162, 22.627 ] ] ] } },
{ "type": "Feature", "properties": { "ward_id": "KOL-DD", "ward_name": "Dum Dum", "city": "Kolkata", "lat": 22.642, "lon": 88.4312, "area_m2": 10241948.934695905, "prediction_timestamp": "2026-09-05T13:11:36.967729", "forecast_date": "2026-09-07", "peak_temperature_c": 43.77, "min_night_temp_c": 26.71, "peak_wbgt_c": 43.5, "peak_utci_c": 42.27, "peak_heat_index_c": 75.32, "is_night_deficit": false, "surge_pct": 69.6, "surge_interval_lower": 65.1, "surge_interval_upper": 74.1, "risk_tier": "EXTREME", "color_code": "DARK_RED" }, "geometry": { "type": "Polygon", "coordinates": [ [ [ 88.4162, 22.627 ], [ 88.4462, 22.627 ], [ 88.4462, 22.657 ], [ 88.4162, 22.657 ], [ 88.4162, 22.627 ] ] ] } },
{ "type": "Feature", "properties": { "ward_id": "KOL-DD", "ward_name": "Dum Dum", "city": "Kolkata", "lat": 22.642, "lon": 88.4312, "area_m2": 10241948.934695905, "prediction_timestamp": "2026-09-05T13:11:36.967729", "forecast_date": "2026-09-08", "peak_temperature_c": 44.38, "min_night_temp_c": 27.76, "peak_wbgt_c": 41.92, "peak_utci_c": 41.88, "peak_heat_index_c": 76.28, "is_night_deficit": false, "surge_pct": 69.6, "surge_interval_lower": 65.1, "surge_interval_upper": 74.1, "risk_tier": "EXTREME", "color_code": "DARK_RED" }, "geometry": { "type": "Polygon", "coordinates": [ [ [ 88.4162, 22.627 ], [ 88.4462, 22.627 ], [ 88.4462, 22.657 ], [ 88.4162, 22.657 ], [ 88.4162, 22.627 ] ] ] } },
{ "type": "Feature", "properties": { "ward_id": "KOL-DD", "ward_name": "Dum Dum", "city": "Kolkata", "lat": 22.642, "lon": 88.4312, "area_m2": 10241948.934695905, "prediction_timestamp": "2026-09-05T13:11:36.967729", "forecast_date": "2026-09-09", "peak_temperature_c": 42.88, "min_night_temp_c": 27.36, "peak_wbgt_c": 40.28, "peak_utci_c": 41.1, "peak_heat_index_c": 68.46, "is_night_deficit": false, "surge_pct": 69.6, "surge_interval_lower": 65.1, "surge_interval_upper": 74.1, "risk_tier": "EXTREME", "color_code": "DARK_RED" }, "geometry": { "type": "Polygon", "coordinates": [ [ [ 88.4162, 22.627 ], [ 88.4462, 22.627 ], [ 88.4462, 22.657 ], [ 88.4162, 22.657 ], [ 88.4162, 22.627 ] ] ] } },
{ "type": "Feature", "properties": { "ward_id": "KOL-DD", "ward_name": "Dum Dum", "city": "Kolkata", "lat": 22.642, "lon": 88.4312, "area_m2": 10241948.934695905, "prediction_timestamp": "2026-09-05T13:11:36.967729", "forecast_date": "2026-09-10", "peak_temperature_c": 41.99, "min_night_temp_c": 24.32, "peak_wbgt_c": 40.71, "peak_utci_c": 41.1, "peak_heat_index_c": 62.36, "is_night_deficit": false, "surge_pct": 69.6, "surge_interval_lower": 65.1, "surge_interval_upper": 74.1, "risk_tier": "EXTREME", "color_code": "DARK_RED" }, "geometry": { "type": "Polygon", "coordinates": [ [ [ 88.4162, 22.627 ], [ 88.4462, 22.627 ], [ 88.4462, 22.657 ], [ 88.4162, 22.657 ], [ 88.4162, 22.627 ] ] ] } },
{ "type": "Feature", "properties": { "ward_id": "KOL-SL", "ward_name": "Salt Lake Sector V", "city": "Kolkata", "lat": 22.58, "lon": 88.437, "area_m2": 10246509.835698923, "prediction_timestamp": "2026-09-05T13:11:36.967729", "forecast_date": "2026-09-05", "peak_temperature_c": 37.26, "min_night_temp_c": 28.68, "peak_wbgt_c": 33.55, "peak_utci_c": 29.17, "peak_heat_index_c": 57.68, "is_night_deficit": true, "surge_pct": 67.9, "surge_interval_lower": 63.4, "surge_interval_upper": 72.4, "risk_tier": "EXTREME", "color_code": "DARK_RED" }, "geometry": { "type": "Polygon", "coordinates": [ [ [ 88.422, 22.565 ], [ 88.452, 22.565 ], [ 88.452, 22.595 ], [ 88.422, 22.595 ], [ 88.422, 22.565 ] ] ] } },
{ "type": "Feature", "properties": { "ward_id": "KOL-SL", "ward_name": "Salt Lake Sector V", "city": "Kolkata", "lat": 22.58, "lon": 88.437, "area_m2": 10246509.835698923, "prediction_timestamp": "2026-09-05T13:11:36.967729", "forecast_date": "2026-09-06", "peak_temperature_c": 42.77, "min_night_temp_c": 25.66, "peak_wbgt_c": 39.65, "peak_utci_c": 41.1, "peak_heat_index_c": 69.48, "is_night_deficit": false, "surge_pct": 64.9, "surge_interval_lower": 60.4, "surge_interval_upper": 69.4, "risk_tier": "EXTREME", "color_code": "DARK_RED" }, "geometry": { "type": "Polygon", "coordinates": [ [ [ 88.422, 22.565 ], [ 88.452, 22.565 ], [ 88.452, 22.595 ], [ 88.422, 22.595 ], [ 88.422, 22.565 ] ] ] } },
{ "type": "Feature", "properties": { "ward_id": "KOL-SL", "ward_name": "Salt Lake Sector V", "city": "Kolkata", "lat": 22.58, "lon": 88.437, "area_m2": 10246509.835698923, "prediction_timestamp": "2026-09-05T13:11:36.967729", "forecast_date": "2026-09-07", "peak_temperature_c": 44.4, "min_night_temp_c": 27.81, "peak_wbgt_c": 41.97, "peak_utci_c": 41.93, "peak_heat_index_c": 78.19, "is_night_deficit": false, "surge_pct": 64.6, "surge_interval_lower": 60.1, "surge_interval_upper": 69.1, "risk_tier": "EXTREME", "color_code": "DARK_RED" }, "geometry": { "type": "Polygon", "coordinates": [ [ [ 88.422, 22.565 ], [ 88.452, 22.565 ], [ 88.452, 22.595 ], [ 88.422, 22.595 ], [ 88.422, 22.565 ] ] ] } },
{ "type": "Feature", "properties": { "ward_id": "KOL-SL", "ward_name": "Salt Lake Sector V", "city": "Kolkata", "lat": 22.58, "lon": 88.437, "area_m2": 10246509.835698923, "prediction_timestamp": "2026-09-05T13:11:36.967729", "forecast_date": "2026-09-08", "peak_temperature_c": 44.2, "min_night_temp_c": 27.73, "peak_wbgt_c": 40.49, "peak_utci_c": 42.09, "peak_heat_index_c": 75.49, "is_night_deficit": false, "surge_pct": 64.9, "surge_interval_lower": 60.4, "surge_interval_upper": 69.4, "risk_tier": "EXTREME", "color_code": "DARK_RED" }, "geometry": { "type": "Polygon", "coordinates": [ [ [ 88.422, 22.565 ], [ 88.452, 22.565 ], [ 88.452, 22.595 ], [ 88.422, 22.595 ], [ 88.422, 22.565 ] ] ] } },
{ "type": "Feature", "properties": { "ward_id": "KOL-SL", "ward_name": "Salt Lake Sector V", "city": "Kolkata", "lat": 22.58, "lon": 88.437, "area_m2": 10246509.835698923, "prediction_timestamp": "2026-09-05T13:11:36.967729", "forecast_date": "2026-09-09", "peak_temperature_c": 42.67, "min_night_temp_c": 27.21, "peak_wbgt_c": 43.29, "peak_utci_c": 41.5, "peak_heat_index_c": 66.18, "is_night_deficit": false, "surge_pct": 64.6, "surge_interval_lower": 60.1, "surge_interval_upper": 69.1, "risk_tier": "EXTREME", "color_code": "DARK_RED" }, "geometry": { "type": "Polygon", "coordinates": [ [ [ 88.422, 22.565 ], [ 88.452, 22.565 ], [ 88.452, 22.595 ], [ 88.422, 22.595 ], [ 88.422, 22.565 ] ] ] } },
{ "type": "Feature", "properties": { "ward_id": "KOL-SL", "ward_name": "Salt Lake Sector V", "city": "Kolkata", "lat": 22.58, "lon": 88.437, "area_m2": 10246509.835698923, "prediction_timestamp": "2026-09-05T13:11:36.967729", "forecast_date": "2026-09-10", "peak_temperature_c": 42.35, "min_night_temp_c": 25.02, "peak_wbgt_c": 43.84, "peak_utci_c": 42.24, "peak_heat_index_c": 64.4, "is_night_deficit": false, "surge_pct": 64.6, "surge_interval_lower": 60.1, "surge_interval_upper": 69.1, "risk_tier": "EXTREME", "color_code": "DARK_RED" }, "geometry": { "type": "Polygon", "coordinates": [ [ [ 88.422, 22.565 ], [ 88.452, 22.565 ], [ 88.452, 22.595 ], [ 88.422, 22.595 ], [ 88.422, 22.565 ] ] ] } },
{ "type": "Feature", "properties": { "ward_id": "KOL-BB", "ward_name": "Burrabazar Commercial", "city": "Kolkata", "lat": 22.585, "lon": 88.355, "area_m2": 10245533.324807949, "prediction_timestamp": "2026-09-05T13:11:36.967729", "forecast_date": "2026-09-05", "peak_temperature_c": 37.3, "min_night_temp_c": 28.37, "peak_wbgt_c": 33.13, "peak_utci_c": 30.42, "peak_heat_index_c": 55.28, "is_night_deficit": true, "surge_pct": 68.3, "surge_interval_lower": 63.8, "surge_interval_upper": 72.8, "risk_tier": "EXTREME", "color_code": "DARK_RED" }, "geometry": { "type": "Polygon", "coordinates": [ [ [ 88.34, 22.57 ], [ 88.37, 22.57 ], [ 88.37, 22.6 ], [ 88.34, 22.6 ], [ 88.34, 22.57 ] ] ] } },
{ "type": "Feature", "properties": { "ward_id": "KOL-BB", "ward_name": "Burrabazar Commercial", "city": "Kolkata", "lat": 22.585, "lon": 88.355, "area_m2": 10245533.324807949, "prediction_timestamp": "2026-09-05T13:11:36.967729", "forecast_date": "2026-09-06", "peak_temperature_c": 43.4, "min_night_temp_c": 25.35, "peak_wbgt_c": 43.53, "peak_utci_c": 41.38, "peak_heat_index_c": 71.01, "is_night_deficit": false, "surge_pct": 64.4, "surge_interval_lower": 59.9, "surge_interval_upper": 68.9, "risk_tier": "EXTREME", "color_code": "DARK_RED" }, "geometry": { "type": "Polygon", "coordinates": [ [ [ 88.34, 22.57 ], [ 88.37, 22.57 ], [ 88.37, 22.6 ], [ 88.34, 22.6 ], [ 88.34, 22.57 ] ] ] } },
{ "type": "Feature", "properties": { "ward_id": "KOL-BB", "ward_name": "Burrabazar Commercial", "city": "Kolkata", "lat": 22.585, "lon": 88.355, "area_m2": 10245533.324807949, "prediction_timestamp": "2026-09-05T13:11:36.967729", "forecast_date": "2026-09-07", "peak_temperature_c": 44.63, "min_night_temp_c": 27.35, "peak_wbgt_c": 40.2, "peak_utci_c": 41.6, "peak_heat_index_c": 78.49, "is_night_deficit": false, "surge_pct": 64.4, "surge_interval_lower": 59.9, "surge_interval_upper": 68.9, "risk_tier": "EXTREME", "color_code": "DARK_RED" }, "geometry": { "type": "Polygon", "coordinates": [ [ [ 88.34, 22.57 ], [ 88.37, 22.57 ], [ 88.37, 22.6 ], [ 88.34, 22.6 ], [ 88.34, 22.57 ] ] ] } },
{ "type": "Feature", "properties": { "ward_id": "KOL-BB", "ward_name": "Burrabazar Commercial", "city": "Kolkata", "lat": 22.585, "lon": 88.355, "area_m2": 10245533.324807949, "prediction_timestamp": "2026-09-05T13:11:36.967729", "forecast_date": "2026-09-08", "peak_temperature_c": 44.12, "min_night_temp_c": 27.43, "peak_wbgt_c": 40.68, "peak_utci_c": 41.64, "peak_heat_index_c": 72.32, "is_night_deficit": false, "surge_pct": 64.4, "surge_interval_lower": 59.9, "surge_interval_upper": 68.9, "risk_tier": "EXTREME", "color_code": "DARK_RED" }, "geometry": { "type": "Polygon", "coordinates": [ [ [ 88.34, 22.57 ], [ 88.37, 22.57 ], [ 88.37, 22.6 ], [ 88.34, 22.6 ], [ 88.34, 22.57 ] ] ] } },
{ "type": "Feature", "properties": { "ward_id": "KOL-BB", "ward_name": "Burrabazar Commercial", "city": "Kolkata", "lat": 22.585, "lon": 88.355, "area_m2": 10245533.324807949, "prediction_timestamp": "2026-09-05T13:11:36.967729", "forecast_date": "2026-09-09", "peak_temperature_c": 44.77, "min_night_temp_c": 27.05, "peak_wbgt_c": 42.59, "peak_utci_c": 41.54, "peak_heat_index_c": 76.63, "is_night_deficit": false, "surge_pct": 64.4, "surge_interval_lower": 59.9, "surge_interval_upper": 68.9, "risk_tier": "EXTREME", "color_code": "DARK_RED" }, "geometry": { "type": "Polygon", "coordinates": [ [ [ 88.34, 22.57 ], [ 88.37, 22.57 ], [ 88.37, 22.6 ], [ 88.34, 22.6 ], [ 88.34, 22.57 ] ] ] } },
{ "type": "Feature", "properties": { "ward_id": "KOL-BB", "ward_name": "Burrabazar Commercial", "city": "Kolkata", "lat": 22.585, "lon": 88.355, "area_m2": 10245533.324807949, "prediction_timestamp": "2026-09-05T13:11:36.967729", "forecast_date": "2026-09-10", "peak_temperature_c": 41.4, "min_night_temp_c": 25.94, "peak_wbgt_c": 38.78, "peak_utci_c": 40.92, "peak_heat_index_c": 65.5, "is_night_deficit": false, "surge_pct": 64.4, "surge_interval_lower": 59.9, "surge_interval_upper": 68.9, "risk_tier": "EXTREME", "color_code": "DARK_RED" }, "geometry": { "type": "Polygon", "coordinates": [ [ [ 88.34, 22.57 ], [ 88.37, 22.57 ], [ 88.37, 22.6 ], [ 88.34, 22.6 ], [ 88.34, 22.57 ] ] ] } },
{ "type": "Feature", "properties": { "ward_id": "KOL-BH", "ward_name": "Behala South", "city": "Kolkata", "lat": 22.4988, "lon": 88.3186, "area_m2": 10251532.155056076, "prediction_timestamp": "2026-09-05T13:11:36.967729", "forecast_date": "2026-09-05", "peak_temperature_c": 36.93, "min_night_temp_c": 27.15, "peak_wbgt_c": 33.13, "peak_utci_c": 29.11, "peak_heat_index_c": 55.72, "is_night_deficit": false, "surge_pct": 59.2, "surge_interval_lower": 54.7, "surge_interval_upper": 63.7, "risk_tier": "SEVERE", "color_code": "RED" }, "geometry": { "type": "Polygon", "coordinates": [ [ [ 88.3036, 22.4838 ], [ 88.3336, 22.4838 ], [ 88.3336, 22.5138 ], [ 88.3036, 22.5138 ], [ 88.3036, 22.4838 ] ] ] } },
{ "type": "Feature", "properties": { "ward_id": "KOL-BH", "ward_name": "Behala South", "city": "Kolkata", "lat": 22.4988, "lon": 88.3186, "area_m2": 10251532.155056076, "prediction_timestamp": "2026-09-05T13:11:36.967729", "forecast_date": "2026-09-06", "peak_temperature_c": 43.75, "min_night_temp_c": 25.25, "peak_wbgt_c": 40.9, "peak_utci_c": 41.27, "peak_heat_index_c": 72.94, "is_night_deficit": false, "surge_pct": 57.4, "surge_interval_lower": 52.9, "surge_interval_upper": 61.9, "risk_tier": "SEVERE", "color_code": "RED" }, "geometry": { "type": "Polygon", "coordinates": [ [ [ 88.3036, 22.4838 ], [ 88.3336, 22.4838 ], [ 88.3336, 22.5138 ], [ 88.3036, 22.5138 ], [ 88.3036, 22.4838 ] ] ] } },
{ "type": "Feature", "properties": { "ward_id": "KOL-BH", "ward_name": "Behala South", "city": "Kolkata", "lat": 22.4988, "lon": 88.3186, "area_m2": 10251532.155056076, "prediction_timestamp": "2026-09-05T13:11:36.967729", "forecast_date": "2026-09-07", "peak_temperature_c": 44.6, "min_night_temp_c": 26.28, "peak_wbgt_c": 43.28, "peak_utci_c": 41.55, "peak_heat_index_c": 77.53, "is_night_deficit": false, "surge_pct": 57.4, "surge_interval_lower": 52.9, "surge_interval_upper": 61.9, "risk_tier": "SEVERE", "color_code": "RED" }, "geometry": { "type": "Polygon", "coordinates": [ [ [ 88.3036, 22.4838 ], [ 88.3336, 22.4838 ], [ 88.3336, 22.5138 ], [ 88.3036, 22.5138 ], [ 88.3036, 22.4838 ] ] ] } },
{ "type": "Feature", "properties": { "ward_id": "KOL-BH", "ward_name": "Behala South", "city": "Kolkata", "lat": 22.4988, "lon": 88.3186, "area_m2": 10251532.155056076, "prediction_timestamp": "2026-09-05T13:11:36.967729", "forecast_date": "2026-09-08", "peak_temperature_c": 44.05, "min_night_temp_c": 27.43, "peak_wbgt_c": 42.22, "peak_utci_c": 41.92, "peak_heat_index_c": 73.69, "is_night_deficit": false, "surge_pct": 57.4, "surge_interval_lower": 52.9, "surge_interval_upper": 61.9, "risk_tier": "SEVERE", "color_code": "RED" }, "geometry": { "type": "Polygon", "coordinates": [ [ [ 88.3036, 22.4838 ], [ 88.3336, 22.4838 ], [ 88.3336, 22.5138 ], [ 88.3036, 22.5138 ], [ 88.3036, 22.4838 ] ] ] } },
{ "type": "Feature", "properties": { "ward_id": "KOL-BH", "ward_name": "Behala South", "city": "Kolkata", "lat": 22.4988, "lon": 88.3186, "area_m2": 10251532.155056076, "prediction_timestamp": "2026-09-05T13:11:36.967729", "forecast_date": "2026-09-09", "peak_temperature_c": 43.52, "min_night_temp_c": 26.58, "peak_wbgt_c": 40.01, "peak_utci_c": 41.78, "peak_heat_index_c": 72.49, "is_night_deficit": false, "surge_pct": 58.0, "surge_interval_lower": 53.5, "surge_interval_upper": 62.5, "risk_tier": "SEVERE", "color_code": "RED" }, "geometry": { "type": "Polygon", "coordinates": [ [ [ 88.3036, 22.4838 ], [ 88.3336, 22.4838 ], [ 88.3336, 22.5138 ], [ 88.3036, 22.5138 ], [ 88.3036, 22.4838 ] ] ] } },
{ "type": "Feature", "properties": { "ward_id": "KOL-BH", "ward_name": "Behala South", "city": "Kolkata", "lat": 22.4988, "lon": 88.3186, "area_m2": 10251532.155056076, "prediction_timestamp": "2026-09-05T13:11:36.967729", "forecast_date": "2026-09-10", "peak_temperature_c": 42.03, "min_night_temp_c": 26.33, "peak_wbgt_c": 38.81, "peak_utci_c": 40.21, "peak_heat_index_c": 60.09, "is_night_deficit": false, "surge_pct": 57.7, "surge_interval_lower": 53.2, "surge_interval_upper": 62.2, "risk_tier": "SEVERE", "color_code": "RED" }, "geometry": { "type": "Polygon", "coordinates": [ [ [ 88.3036, 22.4838 ], [ 88.3336, 22.4838 ], [ 88.3336, 22.5138 ], [ 88.3036, 22.5138 ], [ 88.3036, 22.4838 ] ] ] } },
{ "type": "Feature", "properties": { "ward_id": "KOL-GH", "ward_name": "Gariahat Urban", "city": "Kolkata", "lat": 22.5195, "lon": 88.3653, "area_m2": 10250367.055129584, "prediction_timestamp": "2026-09-05T13:11:36.967729", "forecast_date": "2026-09-05", "peak_temperature_c": 37.26, "min_night_temp_c": 28.76, "peak_wbgt_c": 33.51, "peak_utci_c": 30.35, "peak_heat_index_c": 57.46, "is_night_deficit": true, "surge_pct": 57.8, "surge_interval_lower": 53.3, "surge_interval_upper": 62.3, "risk_tier": "SEVERE", "color_code": "RED" }, "geometry": { "type": "Polygon", "coordinates": [ [ [ 88.3503, 22.5045 ], [ 88.3803, 22.5045 ], [ 88.3803, 22.5345 ], [ 88.3503, 22.5345 ], [ 88.3503, 22.5045 ] ] ] } },
{ "type": "Feature", "properties": { "ward_id": "KOL-GH", "ward_name": "Gariahat Urban", "city": "Kolkata", "lat": 22.5195, "lon": 88.3653, "area_m2": 10250367.055129584, "prediction_timestamp": "2026-09-05T13:11:36.967729", "forecast_date": "2026-09-06", "peak_temperature_c": 43.99, "min_night_temp_c": 25.88, "peak_wbgt_c": 39.38, "peak_utci_c": 40.93, "peak_heat_index_c": 72.75, "is_night_deficit": false, "surge_pct": 57.1, "surge_interval_lower": 52.6, "surge_interval_upper": 61.6, "risk_tier": "SEVERE", "color_code": "RED" }, "geometry": { "type": "Polygon", "coordinates": [ [ [ 88.3503, 22.5045 ], [ 88.3803, 22.5045 ], [ 88.3803, 22.5345 ], [ 88.3503, 22.5345 ], [ 88.3503, 22.5045 ] ] ] } },
{ "type": "Feature", "properties": { "ward_id": "KOL-GH", "ward_name": "Gariahat Urban", "city": "Kolkata", "lat": 22.5195, "lon": 88.3653, "area_m2": 10250367.055129584, "prediction_timestamp": "2026-09-05T13:11:36.967729", "forecast_date": "2026-09-07", "peak_temperature_c": 44.54, "min_night_temp_c": 26.61, "peak_wbgt_c": 40.47, "peak_utci_c": 41.86, "peak_heat_index_c": 76.39, "is_night_deficit": false, "surge_pct": 56.8, "surge_interval_lower": 52.3, "surge_interval_upper": 61.3, "risk_tier": "SEVERE", "color_code": "RED" }, "geometry": { "type": "Polygon", "coordinates": [ [ [ 88.3503, 22.5045 ], [ 88.3803, 22.5045 ], [ 88.3803, 22.5345 ], [ 88.3503, 22.5345 ], [ 88.3503, 22.5045 ] ] ] } },
{ "type": "Feature", "properties": { "ward_id": "KOL-GH", "ward_name": "Gariahat Urban", "city": "Kolkata", "lat": 22.5195, "lon": 88.3653, "area_m2": 10250367.055129584, "prediction_timestamp": "2026-09-05T13:11:36.967729", "forecast_date": "2026-09-08", "peak_temperature_c": 43.75, "min_night_temp_c": 27.36, "peak_wbgt_c": 40.64, "peak_utci_c": 41.29, "peak_heat_index_c": 74.87, "is_night_deficit": false, "surge_pct": 56.8, "surge_interval_lower": 52.3, "surge_interval_upper": 61.3, "risk_tier": "SEVERE", "color_code": "RED" }, "geometry": { "type": "Polygon", "coordinates": [ [ [ 88.3503, 22.5045 ], [ 88.3803, 22.5045 ], [ 88.3803, 22.5345 ], [ 88.3503, 22.5345 ], [ 88.3503, 22.5045 ] ] ] } },
{ "type": "Feature", "properties": { "ward_id": "KOL-GH", "ward_name": "Gariahat Urban", "city": "Kolkata", "lat": 22.5195, "lon": 88.3653, "area_m2": 10250367.055129584, "prediction_timestamp": "2026-09-05T13:11:36.967729", "forecast_date": "2026-09-09", "peak_temperature_c": 43.16, "min_night_temp_c": 27.33, "peak_wbgt_c": 40.84, "peak_utci_c": 41.44, "peak_heat_index_c": 68.74, "is_night_deficit": false, "surge_pct": 56.8, "surge_interval_lower": 52.3, "surge_interval_upper": 61.3, "risk_tier": "SEVERE", "color_code": "RED" }, "geometry": { "type": "Polygon", "coordinates": [ [ [ 88.3503, 22.5045 ], [ 88.3803, 22.5045 ], [ 88.3803, 22.5345 ], [ 88.3503, 22.5345 ], [ 88.3503, 22.5045 ] ] ] } },
{ "type": "Feature", "properties": { "ward_id": "KOL-GH", "ward_name": "Gariahat Urban", "city": "Kolkata", "lat": 22.5195, "lon": 88.3653, "area_m2": 10250367.055129584, "prediction_timestamp": "2026-09-05T13:11:36.967729", "forecast_date": "2026-09-10", "peak_temperature_c": 41.42, "min_night_temp_c": 26.13, "peak_wbgt_c": 38.0, "peak_utci_c": 40.0, "peak_heat_index_c": 63.18, "is_night_deficit": false, "surge_pct": 57.1, "surge_interval_lower": 52.6, "surge_interval_upper": 61.6, "risk_tier": "SEVERE", "color_code": "RED" }, "geometry": { "type": "Polygon", "coordinates": [ [ [ 88.3503, 22.5045 ], [ 88.3803, 22.5045 ], [ 88.3803, 22.5345 ], [ 88.3503, 22.5345 ], [ 88.3503, 22.5045 ] ] ] } }
]
}
